[{"OBJECT_NAME":"STARLINK-35344","OBJECT_ID":"2025-211E","EPOCH":"2026-03-09T17:12:04.491360","MEAN_MOTION":15.05640282,"ECCENTRICITY":9.225e-5,"INCLINATION":97.603,"RA_OF_ASC_NODE":114.0558,"ARG_OF_PERICENTER":101.1467,"MEAN_ANOMALY":258.9864,"EPHEMERIS_TYPE":0,"CLASSIFICATION_TYPE":"U","NORAD_CAT_ID":65656,"ELEMENT_SET_NO":999,"REV_AT_EPOCH":2704,"BSTAR":0.00013428472,"MEAN_MOTION_DOT":1.877e-5,"MEAN_MOTION_DDOT":0},{"OBJECT_NAME":"DMSP 5D-2 F13 DEB","OBJECT_ID":"1995-015HF","EPOCH":"2026-03-08T15:33:20.356128","MEAN_MOTION":15.01113693,"ECCENTRICITY":0.00168904,"INCLINATION":98.8624,"RA_OF_ASC_NODE":112.9575,"ARG_OF_PERICENTER":188.2899,"MEAN_ANOMALY":171.8045,"EPHEMERIS_TYPE":0,"CLASSIFICATION_TYPE":"U","NORAD_CAT_ID":42289,"ELEMENT_SET_NO":999,"REV_AT_EPOCH":56056,"BSTAR":0.014483506,"MEAN_MOTION_DOT":0.00190863,"MEAN_MOTION_DDOT":0}]
